{
    "links": {
        "self": "http://www.neowsapp.com/rest/v1/neo/3313847?api_key=iIulBulltgU6a56xZRHN4H3l9WmuAYTsLGpBGhQ2"
    },
    "id": "3313847",
    "neo_reference_id": "3313847",
    "name": "(2006 BN26)",
    "designation": "2006 BN26",
    "nasa_jpl_url": "http://ssd.jpl.nasa.gov/sbdb.cgi?sstr=3313847",
    "absolute_magnitude_h": 23.5,
    "estimated_diameter": {
        "kilometers": {
            "estimated_diameter_min": 0.0530340723,
            "estimated_diameter_max": 0.1185877909
        },
        "meters": {
            "estimated_diameter_min": 53.0340723319,
            "estimated_diameter_max": 118.5877908577
        },
        "miles": {
            "estimated_diameter_min": 0.0329538346,
            "estimated_diameter_max": 0.0736870142
        },
        "feet": {
            "estimated_diameter_min": 173.9963058693,
            "estimated_diameter_max": 389.0675677576
        }
    },
    "is_potentially_hazardous_asteroid": false,
    "close_approach_data": [
        {
            "close_approach_date": "2006-01-10",
            "close_approach_date_full": "2006-Jan-10 10:31",
            "epoch_date_close_approach": 1136889060000,
            "relative_velocity": {
                "kilometers_per_second": "8.0238231327",
                "kilometers_per_hour": "28885.7632776763",
                "miles_per_hour": "17948.4899655095"
            },
            "miss_distance": {
                "astronomical": "0.0431131227",
                "lunar": "16.7710047303",
                "kilometers": "6449631.324968649",
                "miles": "4007615.0697553962"
            },
            "orbiting_body": "Earth"
        },
        {
            "close_approach_date": "2101-08-01",
            "close_approach_date_full": "2101-Aug-01 08:49",
            "epoch_date_close_approach": 4152329340000,
            "relative_velocity": {
                "kilometers_per_second": "13.4896415608",
                "kilometers_per_hour": "48562.7096188469",
                "miles_per_hour": "30174.9792073329"
            },
            "miss_distance": {
                "astronomical": "0.0287291872",
                "lunar": "11.1756538208",
                "kilometers": "4297825.211951264",
                "miles": "2670544.7519008832"
            },
            "orbiting_body": "Mars"
        }
    ],
    "orbital_data": {
        "orbit_id": "11",
        "orbit_determination_date": "2017-04-06 09:09:17",
        "first_observation_date": "2006-01-25",
        "last_observation_date": "2006-02-07",
        "data_arc_in_days": 13,
        "observations_used": 50,
        "orbit_uncertainty": "8",
        "minimum_orbit_intersection": ".0261793",
        "jupiter_tisserand_invariant": "3.671",
        "epoch_osculation": "2453763.5",
        "eccentricity": ".5094041084344214",
        "semi_major_axis": "1.997132600675768",
        "inclination": "1.579027048470647",
        "ascending_node_longitude": "178.581632216156",
        "orbital_period": "1030.881577145478",
        "perihelion_distance": ".9797850488032112",
        "perihelion_argument": "266.4120547390306",
        "aphelion_distance": "3.014480152548325",
        "perihelion_time": "2453726.692780834827",
        "mean_anomaly": "12.85365767826925",
        "mean_motion": ".3492156693660623",
        "equinox": "J2000",
        "orbit_class": {
            "orbit_class_type": "APO",
            "orbit_class_description": "Near-Earth asteroid orbits which cross the Earth’s orbit similar to that of 1862 Apollo",
            "orbit_class_range": "a (semi-major axis) > 1.0 AU; q (perihelion) < 1.017 AU"
        }
    },
    "is_sentry_object": false
}